[{"OBJECT_NAME":"ONEWEB-0312","OBJECT_ID":"2021-075Z","EPOCH":"2026-06-13T02:04:22.632384","MEAN_MOTION":13.17652706,"ECCENTRICITY":0.000214,"INCLINATION":87.9133,"RA_OF_ASC_NODE":6.6894,"ARG_OF_PERICENTER":92.74,"MEAN_ANOMALY":267.3977,"EPHEMERIS_TYPE":0,"CLASSIFICATION_TYPE":"U","NORAD_CAT_ID":49098,"ELEMENT_SET_NO":999,"REV_AT_EPOCH":23306,"BSTAR":9.3103e-05,"MEAN_MOTION_DOT":4.9e-07,"MEAN_MOTION_DDOT":0.0},{"OBJECT_NAME":"ONEWEB-0313","OBJECT_ID":"2021-075AA","EPOCH":"2026-06-13T02:11:25.812672","MEAN_MOTION":13.17648492,"ECCENTRICITY":0.0001977,"INCLINATION":87.9131,"RA_OF_ASC_NODE":6.6941,"ARG_OF_PERICENTER":86.5192,"MEAN_ANOMALY":273.6166,"EPHEMERIS_TYPE":0,"CLASSIFICATION_TYPE":"U","NORAD_CAT_ID":49099,"ELEMENT_SET_NO":999,"REV_AT_EPOCH":23305,"BSTAR":0.00024872,"MEAN_MOTION_DOT":1.09e-06,"MEAN_MOTION_DDOT":0.0},{"OBJECT_NAME":"ONEWEB-0314","OBJECT_ID":"2021-075AB","EPOCH":"2026-06-13T06:51:05.527296","MEAN_MOTION":13.17648674,"ECCENTRICITY":0.0002229,"INCLINATION":87.9144,"RA_OF_ASC_NODE":6.6278,"ARG_OF_PERICENTER":92.3353,"MEAN_ANOMALY":267.8034,"EPHEMERIS_TYPE":0,"CLASSIFICATION_TYPE":"U","NORAD_CAT_ID":49100,"ELEMENT_SET_NO":999,"REV_AT_EPOCH":23305,"BSTAR":6.559199999999999e-05,"MEAN_MOTION_DOT":3.8e-07,"MEAN_MOTION_DDOT":0.0},{"OBJECT_NAME":"ONEWEB-0315","OBJECT_ID":"2021-075AC","EPOCH":"2026-06-13T05:51:36.154944","MEAN_MOTION":13.12443577,"ECCENTRICITY":0.0002137,"INCLINATION":87.8946,"RA_OF_ASC_NODE":351.4288,"ARG_OF_PERICENTER":83.0632,"MEAN_ANOMALY":277.0739,"EPHEMERIS_TYPE":0,"CLASSIFICATION_TYPE":"U","NORAD_CAT_ID":49101,"ELEMENT_SET_NO":999,"REV_AT_EPOCH":23465,"BSTAR":-0.0010309,"MEAN_MOTION_DOT":-3.58e-06,"MEAN_MOTION_DDOT":0.0},{"OBJECT_NAME":"ONEWEB-0316","OBJECT_ID":"2021-075AD","EPOCH":"2026-06-13T05:07:03.903168","MEAN_MOTION":13.18686581,"ECCENTRICITY":0.0001922,"INCLINATION":87.916,"RA_OF_ASC_NODE":336.2471,"ARG_OF_PERICENTER":91.3275,"MEAN_ANOMALY":268.8077,"EPHEMERIS_TYPE":0,"CLASSIFICATION_TYPE":"U","NORAD_CAT_ID":49102,"ELEMENT_SET_NO":999,"REV_AT_EPOCH":23668,"BSTAR":4.3054e-05,"MEAN_MOTION_DOT":3e-07,"MEAN_MOTION_DDOT":0.0},{"OBJECT_NAME":"ONEWEB-0317","OBJECT_ID":"2021-075AE","EPOCH":"2026-06-13T05:56:28.981824","MEAN_MOTION":13.12444494,"ECCENTRICITY":0.0001432,"INCLINATION":87.895,"RA_OF_ASC_NODE":351.4521,"ARG_OF_PERICENTER":113.3352,"MEAN_ANOMALY":246.7927,"EPHEMERIS_TYPE":0,"CLASSIFICATION_TYPE":"U","NORAD_CAT_ID":49103,"ELEMENT_SET_NO":999,"REV_AT_EPOCH":23467,"BSTAR":-0.0008204,"MEAN_MOTION_DOT":-2.82e-06,"MEAN_MOTION_DDOT":0.0},{"OBJECT_NAME":"ONEWEB-0318","OBJECT_ID":"2021-075AF","EPOCH":"2026-06-13T05:02:12.660000","MEAN_MOTION":13.18685651,"ECCENTRICITY":0.0002049,"INCLINATION":87.9167,"RA_OF_ASC_NODE":336.249,"ARG_OF_PERICENTER":87.3553,"MEAN_ANOMALY":272.7814,"EPHEMERIS_TYPE":0,"CLASSIFICATION_TYPE":"U","NORAD_CAT_ID":49104,"ELEMENT_SET_NO":999,"REV_AT_EPOCH":23664,"BSTAR":8.0623e-05,"MEAN_MOTION_DOT":4.5e-07,"MEAN_MOTION_DDOT":0.0},{"OBJECT_NAME":"ONEWEB-0319","OBJECT_ID":"2021-075AG","EPOCH":"2026-06-13T01:44:54.284064","MEAN_MOTION":13.17648529,"ECCENTRICITY":0.0002268,"INCLINATION":87.9134,"RA_OF_ASC_NODE":6.6866,"ARG_OF_PERICENTER":77.6684,"MEAN_ANOMALY":282.4701,"EPHEMERIS_TYPE":0,"CLASSIFICATION_TYPE":"U","NORAD_CAT_ID":49105,"ELEMENT_SET_NO":999,"REV_AT_EPOCH":23306,"BSTAR":0.00030530000000000005,"MEAN_MOTION_DOT":1.31e-06,"MEAN_MOTION_DDOT":0.0},{"OBJECT_NAME":"ONEWEB-0323","OBJECT_ID":"2021-075AH","EPOCH":"2026-06-13T05:29:38.940288","MEAN_MOTION":13.12442709,"ECCENTRICITY":0.0002341,"INCLINATION":87.8948,"RA_OF_ASC_NODE":351.4364,"ARG_OF_PERICENTER":83.7216,"MEAN_ANOMALY":276.418,"EPHEMERIS_TYPE":0,"CLASSIFICATION_TYPE":"U","NORAD_CAT_ID":49106,"ELEMENT_SET_NO":999,"REV_AT_EPOCH":23403,"BSTAR":-0.00073474,"MEAN_MOTION_DOT":-2.52e-06,"MEAN_MOTION_DDOT":0.0},{"OBJECT_NAME":"ONEWEB-0329","OBJECT_ID":"2021-075AJ","EPOCH":"2026-06-13T01:57:03.293568","MEAN_MOTION":13.17648954,"ECCENTRICITY":0.0002,"INCLINATION":87.9136,"RA_OF_ASC_NODE":6.6858,"ARG_OF_PERICENTER":89.3166,"MEAN_ANOMALY":270.8195,"EPHEMERIS_TYPE":0,"CLASSIFICATION_TYPE":"U","NORAD_CAT_ID":49107,"ELEMENT_SET_NO":999,"REV_AT_EPOCH":23304,"BSTAR":0.00017576,"MEAN_MOTION_DOT":8.1e-07,"MEAN_MOTION_DDOT":0.0},{"OBJECT_NAME":"ONEWEB-0330","OBJECT_ID":"2021-075AK","EPOCH":"2026-06-13T06:09:59.251392","MEAN_MOTION":13.17649386,"ECCENTRICITY":0.0001998,"INCLINATION":87.9138,"RA_OF_ASC_NODE":6.6708,"ARG_OF_PERICENTER":93.3559,"MEAN_ANOMALY":266.7801,"EPHEMERIS_TYPE":0,"CLASSIFICATION_TYPE":"U","NORAD_CAT_ID":49108,"ELEMENT_SET_NO":999,"REV_AT_EPOCH":23310,"BSTAR":0.0001447,"MEAN_MOTION_DOT":6.9e-07,"MEAN_MOTION_DDOT":0.0},{"OBJECT_NAME":"ONEWEB-0292","OBJECT_ID":"2021-083A","EPOCH":"2026-06-13T03:04:32.722464","MEAN_MOTION":13.13466241,"ECCENTRICITY":0.0001887,"INCLINATION":87.8942,"RA_OF_ASC_NODE":321.0467,"ARG_OF_PERICENTER":91.1033,"MEAN_ANOMALY":269.0313,"EPHEMERIS_TYPE":0,"CLASSIFICATION_TYPE":"U","NORAD_CAT_ID":49186,"ELEMENT_SET_NO":999,"REV_AT_EPOCH":23039,"BSTAR":0.0028219,"MEAN_MOTION_DOT":1.043e-05,"MEAN_MOTION_DDOT":0.0},{"OBJECT_NAME":"ONEWEB-0303","OBJECT_ID":"2021-083B","EPOCH":"2026-06-13T04:57:21.314016","MEAN_MOTION":13.18686393,"ECCENTRICITY":0.0002009,"INCLINATION":87.9162,"RA_OF_ASC_NODE":336.2487,"ARG_OF_PERICENTER":89.5034,"MEAN_ANOMALY":270.6328,"EPHEMERIS_TYPE":0,"CLASSIFICATION_TYPE":"U","NORAD_CAT_ID":49187,"ELEMENT_SET_NO":999,"REV_AT_EPOCH":22945,"BSTAR":9.115100000000002e-06,"MEAN_MOTION_DOT":1.7e-07,"MEAN_MOTION_DDOT":0.0},{"OBJECT_NAME":"ONEWEB-0306","OBJECT_ID":"2021-083C","EPOCH":"2026-06-13T04:42:46.870848","MEAN_MOTION":13.18686715,"ECCENTRICITY":0.0001723,"INCLINATION":87.9168,"RA_OF_ASC_NODE":336.2383,"ARG_OF_PERICENTER":98.5092,"MEAN_ANOMALY":261.6235,"EPHEMERIS_TYPE":0,"CLASSIFICATION_TYPE":"U","NORAD_CAT_ID":49188,"ELEMENT_SET_NO":999,"REV_AT_EPOCH":22949,"BSTAR":-5.6136e-05,"MEAN_MOTION_DOT":-9e-08,"MEAN_MOTION_DDOT":0.0},{"OBJECT_NAME":"ONEWEB-0307","OBJECT_ID":"2021-083D","EPOCH":"2026-06-13T04:45:42.182496","MEAN_MOTION":13.13469431,"ECCENTRICITY":0.0001953,"INCLINATION":87.895,"RA_OF_ASC_NODE":321.0297,"ARG_OF_PERICENTER":94.5277,"MEAN_ANOMALY":265.6076,"EPHEMERIS_TYPE":0,"CLASSIFICATION_TYPE":"U","NORAD_CAT_ID":49189,"ELEMENT_SET_NO":999,"REV_AT_EPOCH":23040,"BSTAR":0.00067128,"MEAN_MOTION_DOT":2.58e-06,"MEAN_MOTION_DDOT":0.0},{"OBJECT_NAME":"ONEWEB-0320","OBJECT_ID":"2021-083E","EPOCH":"2026-06-13T05:11:54.449952","MEAN_MOTION":13.18685452,"ECCENTRICITY":0.0001817,"INCLINATION":87.9157,"RA_OF_ASC_NODE":336.2528,"ARG_OF_PERICENTER":93.0918,"MEAN_ANOMALY":267.0422,"EPHEMERIS_TYPE":0,"CLASSIFICATION_TYPE":"U","NORAD_CAT_ID":49190,"ELEMENT_SET_NO":999,"REV_AT_EPOCH":22945,"BSTAR":1.1638000000000001e-05,"MEAN_MOTION_DOT":1.8e-07,"MEAN_MOTION_DDOT":0.0}]