ONEWEB-0312             
1 49098U 21075Z   26164.08637306  .00000049  00000+0  93103-4 0  9999
2 49098  87.9133   6.6894 0002140  92.7400 267.3977 13.17652706233068
ONEWEB-0313             
1 49099U 21075AA  26164.09127098  .00000109  00000+0  24872-3 0  9996
2 49099  87.9131   6.6941 0001977  86.5192 273.6166 13.17648492233052
ONEWEB-0314             
1 49100U 21075AB  26164.28548064  .00000038  00000+0  65592-4 0  9996
2 49100  87.9144   6.6278 0002229  92.3353 267.8034 13.17648674233058
ONEWEB-0315             
1 49101U 21075AC  26164.24416846 -.00000358  00000+0 -10309-2 0  9996
2 49101  87.8946 351.4288 0002137  83.0632 277.0739 13.12443577234657
ONEWEB-0316             
1 49102U 21075AD  26164.21323962  .00000030  00000+0  43054-4 0  9990
2 49102  87.9160 336.2471 0001922  91.3275 268.8077 13.18686581236686
ONEWEB-0317             
1 49103U 21075AE  26164.24755766 -.00000282  00000+0 -82040-3 0  9993
2 49103  87.8950 351.4521 0001432 113.3352 246.7927 13.12444494234670
ONEWEB-0318             
1 49104U 21075AF  26164.20986875  .00000045  00000+0  80623-4 0  9998
2 49104  87.9167 336.2490 0002049  87.3553 272.7814 13.18685651236647
ONEWEB-0319             
1 49105U 21075AG  26164.07285051  .00000131  00000+0  30530-3 0  9999
2 49105  87.9134   6.6866 0002268  77.6684 282.4701 13.17648529233065
ONEWEB-0323             
1 49106U 21075AH  26164.22892292 -.00000252  00000+0 -73474-3 0  9998
2 49106  87.8948 351.4364 0002341  83.7216 276.4180 13.12442709234032
ONEWEB-0329             
1 49107U 21075AJ  26164.08128812  .00000081  00000+0  17576-3 0  9992
2 49107  87.9136   6.6858 0002000  89.3166 270.8195 13.17648954233047
ONEWEB-0330             
1 49108U 21075AK  26164.25693578  .00000069  00000+0  14470-3 0  9994
2 49108  87.9138   6.6708 0001998  93.3559 266.7801 13.17649386233105
ONEWEB-0292             
1 49186U 21083A   26164.12815651  .00001043  00000+0  28219-2 0  9991
2 49186  87.8942 321.0467 0001887  91.1033 269.0313 13.13466241230394
ONEWEB-0303             
1 49187U 21083B   26164.20649669  .00000017  00000+0  91151-5 0  9993
2 49187  87.9162 336.2487 0002009  89.5034 270.6328 13.18686393229455
ONEWEB-0306             
1 49188U 21083C   26164.19637582 -.00000009  00000+0 -56136-4 0  9999
2 49188  87.9168 336.2383 0001723  98.5092 261.6235 13.18686715229492
ONEWEB-0307             
1 49189U 21083D   26164.19840489  .00000258  00000+0  67128-3 0  9998
2 49189  87.8950 321.0297 0001953  94.5277 265.6076 13.13469431230402
ONEWEB-0320             
1 49190U 21083E   26164.21660243  .00000018  00000+0  11638-4 0  9991
2 49190  87.9157 336.2528 0001817  93.0918 267.0422 13.18685452229456
